{"type": "FeatureCollection", "features": [ {"type": "Feature", "properties": {"norad_id": 33939, "name": "COSMOS 2251 DEB", "group": "cosmos-2251-debris", "lat": -57.41770635456858, "lon": -78.5770639051118, "alt_km": 575.8278865987022, "timestamp": "2025-12-15T14:57:58.205142+00:00", "meta": {"OBJECT_NAME": "COSMOS 2251 DEB", "OBJECT_ID": "1993-036EU", "EPOCH": "2025-12-14T13:53:09.136608", "MEAN_MOTION": 15.00066228, "ECCENTRICITY": 0.00038454, "INCLINATION": 74.0062, "RA_OF_ASC_NODE": 76.8832, "ARG_OF_PERICENTER": 48.6281, "MEAN_ANOMALY": 311.5236, "EPHEMERIS_TYPE": 0, "CLASSIFICATION_TYPE": "U", "NORAD_CAT_ID": 33939, "ELEMENT_SET_NO": 999, "REV_AT_EPOCH": 88780, "BSTAR": 0.0023666392, "MEAN_MOTION_DOT": 0.00029582, "MEAN_MOTION_DDOT": 0}, "tle": {"line1": "1 33939U 93036EU  25348.57857797  .00029582  00000+0  23666-2 0  9995", "line2": "2 33939  74.0062  76.8832 0003845  48.6281 311.5236 15.00066228887803"}}, "geometry": {"type": "Point", "coordinates": [-78.5770639051118, -57.41770635456858]}}, {"type": "Feature", "properties": {"norad_id": 33940, "name": "COSMOS 2251 DEB", "group": "cosmos-2251-debris", "lat": -52.660281240015436, "lon": 115.97323484041313, "alt_km": 703.1008509055746, "timestamp": "2025-12-15T14:57:58.205151+00:00", "meta": {"OBJECT_NAME": "COSMOS 2251 DEB", "OBJECT_ID": "1993-036EV", "EPOCH": "2025-12-14T16:15:01.334592", "MEAN_MOTION": 14.58818526, "ECCENTRICITY": 0.00112174, "INCLINATION": 74.0393, "RA_OF_ASC_NODE": 139.8078, "ARG_OF_PERICENTER": 219.7679, "MEAN_ANOMALY": 155.6788, "EPHEMERIS_TYPE": 0, "CLASSIFICATION_TYPE": "U", "NORAD_CAT_ID": 33940, "ELEMENT_SET_NO": 999, "REV_AT_EPOCH": 88622, "BSTAR": 0.0010016984, "MEAN_MOTION_DOT": 4.663e-05, "MEAN_MOTION_DDOT": 0}, "tle": {"line1": "1 33940U 93036EV  25348.67709878  .00004663  00000+0  10017-2 0  9993", "line2": "2 33940  74.0393 139.8078 0011217 219.7679 155.6788 14.58818526886220"}}, "geometry": {"type": "Point", "coordinates": [115.97323484041313, -52.660281240015436]}}, {"type": "Feature", "properties": {"norad_id": 33942, "name": "COSMOS 2251 DEB", "group": "cosmos-2251-debris", "lat": -68.07829967269988, "lon": -135.81969886412398, "alt_km": 766.3085404963522, "timestamp": "2025-12-15T14:57:58.205160+00:00", "meta": {"OBJECT_NAME": "COSMOS 2251 DEB", "OBJECT_ID": "1993-036EX", "EPOCH": "2025-12-14T23:00:18.387360", "MEAN_MOTION": 14.37991727, "ECCENTRICITY": 0.00204202, "INCLINATION": 74.0366, "RA_OF_ASC_NODE": 270.7425, "ARG_OF_PERICENTER": 353.5831, "MEAN_ANOMALY": 90.4846, "EPHEMERIS_TYPE": 0, "CLASSIFICATION_TYPE": "U", "NORAD_CAT_ID": 33942, "ELEMENT_SET_NO": 999, "REV_AT_EPOCH": 88166, "BSTAR": 0.00023779978, "MEAN_MOTION_DOT": 6.94e-06, "MEAN_MOTION_DDOT": 0}, "tle": {"line1": "1 33942U 93036EX  25348.95854615  .00000694  00000+0  23780-3 0  9998", "line2": "2 33942  74.0366 270.7425 0020420 353.5831  90.4846 14.37991727881662"}}, "geometry": {"type": "Point", "coordinates": [-135.81969886412398, -68.07829967269988]}}, {"type": "Feature", "properties": {"norad_id": 33944, "name": "COSMOS 2251 DEB", "group": "cosmos-2251-debris", "lat": 24.411803719084553, "lon": 116.15797051545009, "alt_km": 795.4823192087861, "timestamp": "2025-12-15T14:57:58.205169+00:00", "meta": {"OBJECT_NAME": "COSMOS 2251 DEB", "OBJECT_ID": "1993-036EZ", "EPOCH": "2025-12-14T21:49:29.629344", "MEAN_MOTION": 14.37347739, "ECCENTRICITY": 0.01122592, "INCLINATION": 74.0403, "RA_OF_ASC_NODE": 304.9343, "ARG_OF_PERICENTER": 43.9739, "MEAN_ANOMALY": 15.0613, "EPHEMERIS_TYPE": 0, "CLASSIFICATION_TYPE": "U", "NORAD_CAT_ID": 33944, "ELEMENT_SET_NO": 999, "REV_AT_EPOCH": 88059, "BSTAR": 0.00037009859, "MEAN_MOTION_DOT": 1.161e-05, "MEAN_MOTION_DDOT": 0}, "tle": {"line1": "1 33944U 93036EZ  25348.90937071  .00001161  00000+0  37010-3 0  9994", "line2": "2 33944  74.0403 304.9343 0112259  43.9739  15.0613 14.37347739880598"}}, "geometry": {"type": "Point", "coordinates": [116.15797051545009, 24.411803719084553]}}, {"type": "Feature", "properties": {"norad_id": 33945, "name": "COSMOS 2251 DEB", "group": "cosmos-2251-debris", "lat": -72.44550051861276, "lon": -123.87129801629014, "alt_km": 788.4755096184508, "timestamp": "2025-12-15T14:57:58.205178+00:00", "meta": {"OBJECT_NAME": "COSMOS 2251 DEB", "OBJECT_ID": "1993-036FA", "EPOCH": "2025-12-14T20:56:25.963872", "MEAN_MOTION": 14.34602537, "ECCENTRICITY": 0.00219963, "INCLINATION": 74.0299, "RA_OF_ASC_NODE": 302.3589, "ARG_OF_PERICENTER": 28.1106, "MEAN_ANOMALY": 332.1229, "EPHEMERIS_TYPE": 0, "CLASSIFICATION_TYPE": "U", "NORAD_CAT_ID": 33945, "ELEMENT_SET_NO": 999, "REV_AT_EPOCH": 88046, "BSTAR": 0.0001465427, "MEAN_MOTION_DOT": 3.89e-06, "MEAN_MOTION_DDOT": 0}, "tle": {"line1": "1 33945U 93036FA  25348.87252273  .00000389  00000+0  14654-3 0  9995", "line2": "2 33945  74.0299 302.3589 0021996  28.1106 332.1229 14.34602537880465"}}, "geometry": {"type": "Point", "coordinates": [-123.87129801629014, -72.44550051861276]}}, {"type": "Feature", "properties": {"norad_id": 33948, "name": "COSMOS 2251 DEB", "group": "cosmos-2251-debris", "lat": 40.469848292637366, "lon": 105.70709008594568, "alt_km": 778.1685668496712, "timestamp": "2025-12-15T14:57:58.205187+00:00", "meta": {"OBJECT_NAME": "COSMOS 2251 DEB", "OBJECT_ID": "1993-036FD", "EPOCH": "2025-12-14T21:36:19.451232", "MEAN_MOTION": 14.35631806, "ECCENTRICITY": 0.00228112, "INCLINATION": 74.0357, "RA_OF_ASC_NODE": 301.1698, "ARG_OF_PERICENTER": 16.4429, "MEAN_ANOMALY": 343.7458, "EPHEMERIS_TYPE": 0, "CLASSIFICATION_TYPE": "U", "NORAD_CAT_ID": 33948, "ELEMENT_SET_NO": 999, "REV_AT_EPOCH": 88054, "BSTAR": 0.00021592172, "MEAN_MOTION_DOT": 5.98e-06, "MEAN_MOTION_DDOT": 0}, "tle": {"line1": "1 33948U 93036FD  25348.90022513  .00000598  00000+0  21592-3 0  9995", "line2": "2 33948  74.0357 301.1698 0022811  16.4429 343.7458 14.35631806880549"}}, "geometry": {"type": "Point", "coordinates": [105.70709008594568, 40.469848292637366]}}, {"type": "Feature", "properties": {"norad_id": 33971, "name": "COSMOS 2251 DEB", "group": "cosmos-2251-debris", "lat": -62.572382749579084, "lon": 101.9076951363284, "alt_km": 768.713649141393, "timestamp": "2025-12-15T14:57:58.205195+00:00", "meta": {"OBJECT_NAME": "COSMOS 2251 DEB", "OBJECT_ID": "1993-036FE", "EPOCH": "2025-12-14T21:29:15.850176", "MEAN_MOTION": 14.39729069, "ECCENTRICITY": 0.00186134, "INCLINATION": 74.0248, "RA_OF_ASC_NODE": 249.7494, "ARG_OF_PERICENTER": 349.8049, "MEAN_ANOMALY": 84.6579, "EPHEMERIS_TYPE": 0, "CLASSIFICATION_TYPE": "U", "NORAD_CAT_ID": 33971, "ELEMENT_SET_NO": 999, "REV_AT_EPOCH": 88170, "BSTAR": 0.00028351252, "MEAN_MOTION_DOT": 8.63e-06, "MEAN_MOTION_DDOT": 0}, "tle": {"line1": "1 33971U 93036FE  25348.89532234  .00000863  00000+0  28351-3 0  9990", "line2": "2 33971  74.0248 249.7494 0018613 349.8049  84.6579 14.39729069881708"}}, "geometry": {"type": "Point", "coordinates": [101.9076951363284, -62.572382749579084]}}, {"type": "Feature", "properties": {"norad_id": 33972, "name": "COSMOS 2251 DEB", "group": "cosmos-2251-debris", "lat": 28.741946929918967, "lon": -3.7036633278220648, "alt_km": 850.5181740254593, "timestamp": "2025-12-15T14:57:58.205204+00:00", "meta": {"OBJECT_NAME": "COSMOS 2251 DEB", "OBJECT_ID": "1993-036FF", "EPOCH": "2025-12-14T21:51:20.079648", "MEAN_MOTION": 14.36241441, "ECCENTRICITY": 0.01233925, "INCLINATION": 73.9944, "RA_OF_ASC_NODE": 186.6661, "ARG_OF_PERICENTER": 353.9675, "MEAN_ANOMALY": 70.6039, "EPHEMERIS_TYPE": 0, "CLASSIFICATION_TYPE": "U", "NORAD_CAT_ID": 33972, "ELEMENT_SET_NO": 999, "REV_AT_EPOCH": 87105, "BSTAR": 0.00088550662, "MEAN_MOTION_DOT": 2.793e-05, "MEAN_MOTION_DDOT": 0}, "tle": {"line1": "1 33972U 93036FF  25348.91064907  .00002793  00000+0  88551-3 0  9993", "line2": "2 33972  73.9944 186.6661 0123392 353.9675  70.6039 14.36241441871050"}}, "geometry": {"type": "Point", "coordinates": [-3.7036633278220648, 28.741946929918967]}}, {"type": "Feature", "properties": {"norad_id": 33973, "name": "COSMOS 2251 DEB", "group": "cosmos-2251-debris", "lat": -4.366349471746804, "lon": 96.25445339003673, "alt_km": 738.0197609560164, "timestamp": "2025-12-15T14:57:58.205213+00:00", "meta": {"OBJECT_NAME": "COSMOS 2251 DEB", "OBJECT_ID": "1993-036FG", "EPOCH": "2025-12-14T17:55:57.692928", "MEAN_MOTION": 14.45393336, "ECCENTRICITY": 0.00473696, "INCLINATION": 74.0085, "RA_OF_ASC_NODE": 99.1448, "ARG_OF_PERICENTER": 277.1978, "MEAN_ANOMALY": 199.4389, "EPHEMERIS_TYPE": 0, "CLASSIFICATION_TYPE": "U", "NORAD_CAT_ID": 33973, "ELEMENT_SET_NO": 999, "REV_AT_EPOCH": 88629, "BSTAR": 0.00018268144, "MEAN_MOTION_DOT": 6.23e-06, "MEAN_MOTION_DDOT": 0}, "tle": {"line1": "1 33973U 93036FG  25348.74719552  .00000623  00000+0  18268-3 0  9996", "line2": "2 33973  74.0085  99.1448 0047369 277.1978 199.4389 14.45393336886293"}}, "geometry": {"type": "Point", "coordinates": [96.25445339003673, -4.366349471746804]}}, {"type": "Feature", "properties": {"norad_id": 33975, "name": "COSMOS 2251 DEB", "group": "cosmos-2251-debris", "lat": -9.86691646461587, "lon": -97.71767948949328, "alt_km": 766.1082599105994, "timestamp": "2025-12-15T14:57:58.205222+00:00", "meta": {"OBJECT_NAME": "COSMOS 2251 DEB", "OBJECT_ID": "1993-036FJ", "EPOCH": "2025-12-14T22:37:22.649664", "MEAN_MOTION": 14.00529184, "ECCENTRICITY": 0.01912538, "INCLINATION": 73.8021, "RA_OF_ASC_NODE": 80.5809, "ARG_OF_PERICENTER": 213.1379, "MEAN_ANOMALY": 145.7657, "EPHEMERIS_TYPE": 0, "CLASSIFICATION_TYPE": "U", "NORAD_CAT_ID": 33975, "ELEMENT_SET_NO": 999, "REV_AT_EPOCH": 85860, "BSTAR": 0.00063338495, "MEAN_MOTION_DOT": 1.076e-05, "MEAN_MOTION_DDOT": 0}, "tle": {"line1": "1 33975U 93036FJ  25348.94262326  .00001076  00000+0  63338-3 0  9993", "line2": "2 33975  73.8021  80.5809 0191253 213.1379 145.7657 14.00529184858603"}}, "geometry": {"type": "Point", "coordinates": [-97.71767948949328, -9.86691646461587]}}]}